[{"OBJECT_NAME":"STARLINK-5609","OBJECT_ID":"2023-013T","EPOCH":"2026-03-08T23:41:05.603424","MEAN_MOTION":15.02536541,"ECCENTRICITY":0.00010644,"INCLINATION":43.0035,"RA_OF_ASC_NODE":304.1569,"ARG_OF_PERICENTER":275.3373,"MEAN_ANOMALY":84.7348,"EPHEMERIS_TYPE":0,"CLASSIFICATION_TYPE":"U","NORAD_CAT_ID":55348,"ELEMENT_SET_NO":999,"REV_AT_EPOCH":17160,"BSTAR":4.1173318e-5,"MEAN_MOTION_DOT":3.53e-6,"MEAN_MOTION_DDOT":0},{"OBJECT_NAME":"UNKNOWN","OBJECT_ID":"","EPOCH":"2026-03-08T16:53:53.910816","MEAN_MOTION":15.05228096,"ECCENTRICITY":0.0007208,"INCLINATION":85.8751,"RA_OF_ASC_NODE":153.385,"ARG_OF_PERICENTER":323.4201,"MEAN_ANOMALY":36.654,"EPHEMERIS_TYPE":0,"CLASSIFICATION_TYPE":"U","NORAD_CAT_ID":81343,"ELEMENT_SET_NO":999,"REV_AT_EPOCH":46724,"BSTAR":0.00071714,"MEAN_MOTION_DOT":0.00010274,"MEAN_MOTION_DDOT":0}]
